QIANFAN-17              
1 60395U 24140S   25358.13981963  .00000125  00000+0  17461-3 0  9996
2 60395  88.9784 298.2563 0014805 165.6179 194.5397 13.50978982 69675
QIANFAN-18              
1 60396U 24140T   25358.11923814  .00000104  00000+0  14230-3 0  9994
2 60396  88.9777 297.7912 0014710 148.3033 211.9007 13.50978838 69067
QIANFAN-19              
1 61552U 24185A   25358.11722054  .00000492  00000+0  25056-3 0  9999
2 61552  88.9815  76.6404 0004868 263.4503  96.6129 14.14307459 71274
QIANFAN-20              
1 61553U 24185B   25358.12273598  .00000406  00000+0  22747-3 0  9994
2 61553  88.9815  76.9750 0004016 323.7409  36.3502 14.08854755 71097
QIANFAN-21              
1 61554U 24185C   25358.14530775  .00000657  00000+0  28737-3 0  9993
2 61554  88.9730  75.6463 0009226 336.1939  23.8824 14.22622691 71596
QIANFAN-22              
1 61555U 24185D   25358.12179978  .00000209  00000+0  16943-3 0  9995
2 61555  88.9798  78.0019 0005119 337.0104  23.0837 13.86307254 70517
QIANFAN-23              
1 61556U 24185E   25358.14724235  .00000479  00000+0  23463-3 0  9994
2 61556  88.9807  76.4412 0005493 280.0536  80.0032 14.16303121 71366
QIANFAN-24              
1 61557U 24185F   25358.13836493  .00000570  00000+0  24283-3 0  9997
2 61557  88.9789  75.8286 0007435 256.1238 103.9128 14.23825001 71645
